{
  "type": "FeatureCollection",
  "features": [
    {
      "type": "Feature",
      "properties": {
        "norad_id": 29945,
        "name": "FENGYUN 1C DEB",
        "group": "fengyun-1c-debris",
        "lat": 1.7524039515686345,
        "lon": 4.930370615922491,
        "alt_km": 855.4013741347262,
        "timestamp": "2025-12-07T09:35:10.062837+00:00",
        "meta_object_name": "FENGYUN 1C DEB",
        "meta_object_id": "1999-025JT",
        "meta_epoch": "2025-12-06T22:10:48.156672",
        "meta_mean_motion": 14.05570254,
        "meta_eccentricity": 0.00312315,
        "meta_inclination": 98.7925,
        "meta_ra_of_asc_node": 4.7407,
        "meta_arg_of_pericenter": 18.7974,
        "meta_mean_anomaly": 99.7136,
        "meta_ephemeris_type": 0,
        "meta_classification_type": "U",
        "meta_norad_cat_id": 29945,
        "meta_element_set_no": 999,
        "meta_rev_at_epoch": 96896,
        "meta_bstar": 0.00010214222,
        "meta_mean_motion_dot": 1.24e-06,
        "meta_mean_motion_ddot": 0,
        "tle_line1": "1 29945U 99025JT  25340.92416848  .00000124  00000+0  10214-3 0  9997",
        "tle_line2": "2 29945  98.7925   4.7407 0031231  18.7974  99.7136 14.05570254968965"
      },
      "geometry": {
        "type": "Point",
        "coordinates": [
          4.930370615922491,
          1.7524039515686345
        ]
      }
    },
    {
      "type": "Feature",
      "properties": {
        "norad_id": 29946,
        "name": "FENGYUN 1C DEB",
        "group": "fengyun-1c-debris",
        "lat": -28.07614078263098,
        "lon": -21.488083843275447,
        "alt_km": 818.7256471961082,
        "timestamp": "2025-12-07T09:35:10.062900+00:00",
        "meta_object_name": "FENGYUN 1C DEB",
        "meta_object_id": "1999-025JU",
        "meta_epoch": "2025-12-06T23:47:26.969568",
        "meta_mean_motion": 14.08245952,
        "meta_eccentricity": 0.00809353,
        "meta_inclination": 98.7796,
        "meta_ra_of_asc_node": 333.3863,
        "meta_arg_of_pericenter": 359.6982,
        "meta_mean_anomaly": 64.4083,
        "meta_ephemeris_type": 0,
        "meta_classification_type": "U",
        "meta_norad_cat_id": 29946,
        "meta_element_set_no": 999,
        "meta_rev_at_epoch": 96966,
        "meta_bstar": 0.00052896596,
        "meta_mean_motion_dot": 8.88e-06,
        "meta_mean_motion_ddot": 0,
        "tle_line1": "1 29946U 99025JU  25340.99128437  .00000888  00000+0  52897-3 0  9999",
        "tle_line2": "2 29946  98.7796 333.3863 0080935 359.6982  64.4083 14.08245952969665"
      },
      "geometry": {
        "type": "Point",
        "coordinates": [
          -21.488083843275447,
          -28.07614078263098
        ]
      }
    },
    {
      "type": "Feature",
      "properties": {
        "norad_id": 29947,
        "name": "FENGYUN 1C DEB",
        "group": "fengyun-1c-debris",
        "lat": 50.196653335136105,
        "lon": 1.3482724221787843,
        "alt_km": 875.4715076766724,
        "timestamp": "2025-12-07T09:35:10.062914+00:00",
        "meta_object_name": "FENGYUN 1C DEB",
        "meta_object_id": "1999-025JV",
        "meta_epoch": "2025-12-06T20:31:46.955712",
        "meta_mean_motion": 14.03059954,
        "meta_eccentricity": 0.00408212,
        "meta_inclination": 98.8369,
        "meta_ra_of_asc_node": 11.58,
        "meta_arg_of_pericenter": 136.8516,
        "meta_mean_anomaly": 48.3889,
        "meta_ephemeris_type": 0,
        "meta_classification_type": "U",
        "meta_norad_cat_id": 29947,
        "meta_element_set_no": 999,
        "meta_rev_at_epoch": 96667,
        "meta_bstar": 0.00042794011,
        "meta_mean_motion_dot": 6.28e-06,
        "meta_mean_motion_ddot": 0,
        "tle_line1": "1 29947U 99025JV  25340.85540458  .00000628  00000+0  42794-3 0  9993",
        "tle_line2": "2 29947  98.8369  11.5800 0040821 136.8516  48.3889 14.03059954966670"
      },
      "geometry": {
        "type": "Point",
        "coordinates": [
          1.3482724221787843,
          50.196653335136105
        ]
      }
    },
    {
      "type": "Feature",
      "properties": {
        "norad_id": 29948,
        "name": "FENGYUN 1C DEB",
        "group": "fengyun-1c-debris",
        "lat": -37.02704029437178,
        "lon": 140.98351944257502,
        "alt_km": 826.823366907227,
        "timestamp": "2025-12-07T09:35:10.062924+00:00",
        "meta_object_name": "FENGYUN 1C DEB",
        "meta_object_id": "1999-025JW",
        "meta_epoch": "2025-12-06T22:33:55.888416",
        "meta_mean_motion": 14.06187965,
        "meta_eccentricity": 0.0083588,
        "meta_inclination": 98.8237,
        "meta_ra_of_asc_node": 327.2645,
        "meta_arg_of_pericenter": 250.055,
        "meta_mean_anomaly": 164.621,
        "meta_ephemeris_type": 0,
        "meta_classification_type": "U",
        "meta_norad_cat_id": 29948,
        "meta_element_set_no": 999,
        "meta_rev_at_epoch": 96895,
        "meta_bstar": 0.00011272828,
        "meta_mean_motion_dot": 1.48e-06,
        "meta_mean_motion_ddot": 0,
        "tle_line1": "1 29948U 99025JW  25340.94023019  .00000148  00000+0  11273-3 0  9998",
        "tle_line2": "2 29948  98.8237 327.2645 0083588 250.0550 164.6210 14.06187965968953"
      },
      "geometry": {
        "type": "Point",
        "coordinates": [
          140.98351944257502,
          -37.02704029437178
        ]
      }
    },
    {
      "type": "Feature",
      "properties": {
        "norad_id": 29949,
        "name": "FENGYUN 1C DEB",
        "group": "fengyun-1c-debris",
        "lat": 20.824333865602377,
        "lon": -179.3859531662597,
        "alt_km": 886.2935209325296,
        "timestamp": "2025-12-07T09:35:10.062935+00:00",
        "meta_object_name": "FENGYUN 1C DEB",
        "meta_object_id": "1999-025JX",
        "meta_epoch": "2025-12-06T22:55:11.505792",
        "meta_mean_motion": 14.06824977,
        "meta_eccentricity": 0.00234316,
        "meta_inclination": 98.7626,
        "meta_ra_of_asc_node": 356.8204,
        "meta_arg_of_pericenter": 322.4214,
        "meta_mean_anomaly": 106.8882,
        "meta_ephemeris_type": 0,
        "meta_classification_type": "U",
        "meta_norad_cat_id": 29949,
        "meta_element_set_no": 999,
        "meta_rev_at_epoch": 97026,
        "meta_bstar": -1.5764874e-05,
        "meta_mean_motion_dot": -6.9e-07,
        "meta_mean_motion_ddot": 0,
        "tle_line1": "1 29949U 99025JX  25340.95499428 -.00000069  00000+0 -15765-4 0  9996",
        "tle_line2": "2 29949  98.7626 356.8204 0023431 322.4214 106.8882 14.06824977970267"
      },
      "geometry": {
        "type": "Point",
        "coordinates": [
          -179.3859531662597,
          20.824333865602377
        ]
      }
    },
    {
      "type": "Feature",
      "properties": {
        "norad_id": 29950,
        "name": "FENGYUN 1C DEB",
        "group": "fengyun-1c-debris",
        "lat": -70.68375287970156,
        "lon": 38.663632055060205,
        "alt_km": 845.2257840777338,
        "timestamp": "2025-12-07T09:35:10.062945+00:00",
        "meta_object_name": "FENGYUN 1C DEB",
        "meta_object_id": "1999-025JY",
        "meta_epoch": "2025-12-06T15:44:56.055840",
        "meta_mean_motion": 14.10330155,
        "meta_eccentricity": 0.00321921,
        "meta_inclination": 98.7416,
        "meta_ra_of_asc_node": 11.9036,
        "meta_arg_of_pericenter": 259.8071,
        "meta_mean_anomaly": 215.9873,
        "meta_ephemeris_type": 0,
        "meta_classification_type": "U",
        "meta_norad_cat_id": 29950,
        "meta_element_set_no": 999,
        "meta_rev_at_epoch": 97205,
        "meta_bstar": 0.00018751624,
        "meta_mean_motion_dot": 2.91e-06,
        "meta_mean_motion_ddot": 0,
        "tle_line1": "1 29950U 99025JY  25340.65620435  .00000291  00000+0  18752-3 0  9992",
        "tle_line2": "2 29950  98.7416  11.9036 0032192 259.8071 215.9873 14.10330155972052"
      },
      "geometry": {
        "type": "Point",
        "coordinates": [
          38.663632055060205,
          -70.68375287970156
        ]
      }
    },
    {
      "type": "Feature",
      "properties": {
        "norad_id": 29953,
        "name": "FENGYUN 1C DEB",
        "group": "fengyun-1c-debris",
        "lat": 49.78570168348114,
        "lon": -42.20689901681506,
        "alt_km": 969.480500404482,
        "timestamp": "2025-12-07T09:35:10.062956+00:00",
        "meta_object_name": "FENGYUN 1C DEB",
        "meta_object_id": "1999-025KB",
        "meta_epoch": "2025-12-06T21:32:56.438016",
        "meta_mean_motion": 13.90836135,
        "meta_eccentricity": 0.01055952,
        "meta_inclination": 98.9367,
        "meta_ra_of_asc_node": 328.0361,
        "meta_arg_of_pericenter": 282.7467,
        "meta_mean_anomaly": 137.1247,
        "meta_ephemeris_type": 0,
        "meta_classification_type": "U",
        "meta_norad_cat_id": 29953,
        "meta_element_set_no": 999,
        "meta_rev_at_epoch": 95781,
        "meta_bstar": 0.00064958667,
        "meta_mean_motion_dot": 8.07e-06,
        "meta_mean_motion_ddot": 0,
        "tle_line1": "1 29953U 99025KB  25340.89787544  .00000807  00000+0  64959-3 0  9999",
        "tle_line2": "2 29953  98.9367 328.0361 0105595 282.7467 137.1247 13.90836135957810"
      },
      "geometry": {
        "type": "Point",
        "coordinates": [
          -42.20689901681506,
          49.78570168348114
        ]
      }
    }
  ]
}